NORAD_CAT_ID,OBJECT_NAME,OBJECT_TYPE,EPOCH,MEAN_MOTION,ECCENTRICITY,INCLINATION,RA_OF_ASC_NODE,ARG_OF_PERICENTER,MEAN_ANOMALY,BSTAR,MEAN_MOTION_DOT,MEAN_MOTION_DDOT,TLE_LINE0,TLE_LINE1,TLE_LINE2,SEMIMAJOR_AXIS,PERIOD,APOGEE,PERIGEE,DECAYED
55936.0,STARLINK-5882,PAYLOAD,2023-03-22 18:00:00,15.95310529,0.0040196,69.9998,167.7424,162.1511,303.3892,-0.0022674,-0.00972855,0.00029714,0 STARLINK-5882,1 55936U 23037Y   23081.75001157 -.00972855  29714-3 -22674-2 0  9990,2 55936  69.9998 167.7424 0040196 162.1511 303.3892 15.95310529  1300,6665.586,90.265,314.244,260.658,0.0
55936.0,STARLINK-5882,PAYLOAD,2023-03-22 22:00:00,15.95019628,0.003728,69.9998,167.2557,162.2562,180.0678,-0.0025031,-0.01044033,0.00033751,0 STARLINK-5882,1 55936U 23037Y   23081.91667824 -.01044033  33751-3 -25031-2 0  9992,2 55936  69.9998 167.2557 0037280 162.2562 180.0678 15.95019628  1307,6666.397,90.281,313.114,263.409,0.0
55936.0,STARLINK-5882,PAYLOAD,2023-03-23 06:00:00,15.9433458,0.0034753,70.0002,166.2837,163.2357,292.1063,-0.0024551,-0.00977718,0.00029686,0 STARLINK-5882,1 55936U 23037Y   23082.25001157 -.00977718  29686-3 -24551-2 0  9993,2 55936  70.0002 166.2837 0034753 163.2357 292.1063 15.94334580  1377,6668.306,90.32,313.346,266.997,0.0
55936.0,STARLINK-5882,PAYLOAD,2023-03-23 14:00:01,15.93687104,0.0030525,69.9998,165.313,164.0744,43.5563,-0.0026079,-0.00989043,0.00030123,0 STARLINK-5882,1 55936U 23037Y   23082.58335648 -.00989043  30123-3 -26079-2 0  9993,2 55936  69.9998 165.3130 0030525 164.0744  43.5563 15.93687104  1304,6670.112,90.357,312.338,271.617,0.0
55936.0,STARLINK-5882,PAYLOAD,2023-03-24 17:00:11,15.91476805,0.0018784,69.9999,162.0419,173.0117,3.1989,-0.0029602,-0.00971987,0.00028524,0 STARLINK-5882,1 55936U 23037Y   23083.70846065 -.00971987  28524-3 -29602-2 0  9993,2 55936  69.9999 162.0419 0018784 173.0117   3.1989 15.91476805  1605,6676.287,90.482,310.692,285.611,0.0
55936.0,STARLINK-5882,PAYLOAD,2023-03-24 22:00:01,15.91113335,0.0016251,69.9997,161.4374,176.587,112.1028,-0.0032975,-0.01057598,0.00033222,0 STARLINK-5882,1 55936U 23037Y   23083.91668981 -.01057598  33222-3 -32975-2 0  9997,2 55936  69.9997 161.4374 0016251 176.5870 112.1028 15.91113335  1305,6677.303,90.503,310.019,288.317,0.0
55936.0,STARLINK-5882,PAYLOAD,2023-03-25 06:00:00,15.90440792,0.0012859,70.0,160.4714,184.6114,212.3323,-0.0033032,-0.01019301,0.00030827,0 STARLINK-5882,1 55936U 23037Y   23084.25001157 -.01019301  30827-3 -33032-2 0  9994,2 55936  70.0000 160.4714 0012859 184.6114 212.3323 15.90440792  1693,6679.185,90.541,309.639,292.462,0.0
55936.0,STARLINK-5882,PAYLOAD,2023-03-25 14:00:01,15.89767204,0.0010962,70.0001,159.5061,194.1218,310.36,-0.0032819,-0.00977078,0.00028318,0 STARLINK-5882,1 55936U 23037Y   23084.58334491 -.00977078  28318-3 -32819-2 0  9997,2 55936  70.0001 159.5061 0010962 194.1218 310.3600 15.89767204  1743,6681.072,90.579,310.261,295.613,0.0
55936.0,STARLINK-5882,PAYLOAD,2023-03-25 22:00:00,15.89140912,0.0008929,69.9997,158.5407,211.3586,39.8618,-0.0035742,-0.01028906,0.00030971,0 STARLINK-5882,1 55936U 23037Y   23084.91667824 -.01028906  30971-3 -35742-2 0  9997,2 55936  69.9997 158.5407 0008929 211.3586  39.8618 15.89140912  1795,6682.827,90.615,310.659,298.725,0.0
55936.0,STARLINK-5882,PAYLOAD,2023-03-26 06:00:00,15.88493617,0.0008399,69.9997,157.5776,232.8419,124.3424,-0.0037336,-0.01040167,0.00031405,0 STARLINK-5882,1 55936U 23037Y   23085.25001157 -.01040167  31405-3 -37336-2 0  9993,2 55936  69.9997 157.5776 0008399 232.8419 124.3424 15.88493617  1851,6684.643,90.652,312.122,300.893,0.0
55936.0,STARLINK-5882,PAYLOAD,2023-03-26 22:00:01,15.87165874,0.0009177,69.9996,155.6531,264.8818,301.9619,-0.0038125,-0.00905176,0.0,0 STARLINK-5882,1 55936U 23037Y   23085.91668981 -.00905176  00000-0 -38125-2 0  9990,2 55936  69.9996 155.6531 0009177 264.8818 301.9619 15.87165874  1951,6688.37,90.728,316.373,304.097,0.0
55936.0,STARLINK-5882,PAYLOAD,2023-03-27 14:00:01,15.85876933,0.0007217,69.9998,153.7318,271.8039,141.4223,-0.0041816,-0.00927585,0.0,0 STARLINK-5882,1 55936U 23037Y   23086.58334491 -.00927585  00000-0 -41816-2 0  9999,2 55936  69.9998 153.7318 0007217 271.8039 141.4223 15.85876933  1301,6691.994,90.801,318.688,309.029,0.0
55936.0,STARLINK-5882,PAYLOAD,2023-03-27 22:00:00,15.85227896,0.0003902,69.9999,152.7729,281.3479,233.9306,-0.004339,-0.00929806,0.0,0 STARLINK-5882,1 55936U 23037Y   23086.91667824 -.00929806  00000-0 -43390-2 0  9992,2 55936  69.9999 152.7729 0003902 281.3479 233.9306 15.85227896  1305,6693.82,90.839,318.297,313.073,0.0
55936.0,STARLINK-5882,PAYLOAD,2023-03-28 14:00:01,15.83908263,0.0003657,70.0,150.8578,274.4465,82.6,-0.0045019,-0.00907557,0.0,0 STARLINK-5882,1 55936U 23037Y   23087.58334491 -.00907557  00000-0 -45019-2 0  9996,2 55936  70.0000 150.8578 0003657 274.4465  82.6000 15.83908263  1309,6697.538,90.914,321.852,316.953,0.0
55936.0,STARLINK-5882,PAYLOAD,2023-03-28 22:00:00,15.83256386,0.0003697,69.9998,149.9009,283.5439,173.2098,-0.0046445,-0.00907705,0.0,0 STARLINK-5882,1 55936U 23037Y   23087.91667824 -.00907705  00000-0 -46445-2 0  9991,2 55936  69.9998 149.9009 0003697 283.5439 173.2098 15.83256386  1302,6699.376,90.952,323.718,318.764,0.0
55936.0,STARLINK-5882,PAYLOAD,2023-03-29 02:00:01,15.82929907,0.0003753,70.0002,149.4236,280.5848,45.7294,-0.0047169,-0.00907739,0.0,0 STARLINK-5882,1 55936U 23037Y   23088.08334491 -.00907739  00000-0 -47169-2 0  9992,2 55936  70.0002 149.4236 0003753 280.5848  45.7294 15.82929907  2309,6700.297,90.971,324.677,319.647,0.0
55936.0,STARLINK-5882,PAYLOAD,2023-03-29 14:00:01,15.81952322,0.0003588,70.0003,147.9916,271.2295,22.5913,-0.004938,-0.00907502,0.0,0 STARLINK-5882,1 55936U 23037Y   23088.58334491 -.00907502  00000-0 -49380-2 0  9992,2 55936  70.0003 147.9916 0003588 271.2295  22.5913 15.81952322  1303,6703.057,91.027,327.327,322.517,0.0
55936.0,STARLINK-5882,PAYLOAD,2023-03-29 22:00:00,15.81296082,0.0003645,69.9999,147.0376,271.6621,119.5211,-0.0050569,-0.00901947,0.0,0 STARLINK-5882,1 55936U 23037Y   23088.91667824 -.00901947  00000-0 -50569-2 0  9996,2 55936  69.9999 147.0376 0003645 271.6621 119.5211 15.81296082  1308,6704.911,91.065,329.22,324.332,0.0
55936.0,STARLINK-5882,PAYLOAD,2023-03-30 00:00:00,15.81133236,0.0003509,69.9999,146.7996,270.3045,235.0966,-0.005095,-0.0090183,0.0,0 STARLINK-5882,1 55936U 23037Y   23089.00001157 -.00901830  00000-0 -50950-2 0  9993,2 55936  69.9999 146.7996 0003509 270.3045 235.0966 15.81133236  2445,6705.372,91.074,329.59,324.884,0.0
55936.0,STARLINK-5882,PAYLOAD,2023-03-30 22:00:00,15.79341393,0.0003643,70.0001,144.1827,275.0676,43.5031,-0.0055598,-0.00905863,0.0,0 STARLINK-5882,1 55936U 23037Y   23089.91667824 -.00905863  00000-0 -55598-2 0  9995,2 55936  70.0001 144.1827 0003643 275.0676  43.5031 15.79341393  2591,6710.443,91.177,334.752,329.863,0.0
55936.0,STARLINK-5882,PAYLOAD,2023-03-31 22:00:00,15.77380026,0.0003743,70.0003,141.3357,285.6911,313.2283,-0.0060185,-0.00898314,0.0,0 STARLINK-5882,1 55936U 23037Y   23090.91667824 -.00898314  00000-0 -60185-2 0  9997,2 55936  70.0003 141.3357 0003743 285.6911 313.2283 15.77380026  2747,6716.004,91.291,340.383,335.355,0.0
55936.0,STARLINK-5882,PAYLOAD,2023-04-01 14:00:01,15.76078679,0.0003592,70.0,139.4426,274.6737,147.2305,-0.0063996,-0.00901115,0.0,0 STARLINK-5882,1 55936U 23037Y   23091.58334491 -.00901115  00000-0 -63996-2 0  9999,2 55936  70.0000 139.4426 0003592 274.6737 147.2305 15.76078679  1303,6719.7,91.366,343.979,339.152,0.0
55936.0,STARLINK-5882,PAYLOAD,2023-04-01 16:00:00,15.7591845,0.0003452,69.9997,139.2061,273.7589,260.798,-0.0064871,-0.00906355,0.0,0 STARLINK-5882,1 55936U 23037Y   23091.66667824 -.00906355  00000-0 -64871-2 0  9991,2 55936  69.9997 139.2061 0003452 273.7589 260.7980 15.75918450  2869,6720.156,91.375,344.341,339.701,0.0
55936.0,STARLINK-5882,PAYLOAD,2023-04-01 22:00:00,15.75427506,0.0003693,69.9999,138.4969,286.3363,225.8878,-0.0066016,-0.00903108,0.0,0 STARLINK-5882,1 55936U 23037Y   23091.91667824 -.00903108  00000-0 -66016-2 0  9995,2 55936  69.9999 138.4969 0003693 286.3363 225.8878 15.75427506  1309,6721.552,91.404,345.899,340.935,0.0
55936.0,STARLINK-5882,PAYLOAD,2023-04-02 14:00:01,15.74121715,0.0003695,70.0,136.6094,277.6679,52.8494,-0.0069659,-0.00900436,0.0,0 STARLINK-5882,1 55936U 23037Y   23092.58334491 -.00900436  00000-0 -69659-2 0  9997,2 55936  70.0000 136.6094 0003695 277.6679  52.8494 15.74121715  1303,6725.269,91.48,349.619,344.649,0.0
55936.0,STARLINK-5882,PAYLOAD,2023-04-02 16:00:00,15.73961666,0.0003585,69.9999,136.3736,278.9517,163.6312,-0.0070563,-0.00905234,0.0,0 STARLINK-5882,1 55936U 23037Y   23092.66667824 -.00905234  00000-0 -70563-2 0  9992,2 55936  69.9999 136.3736 0003585 278.9517 163.6312 15.73961666  3027,6725.725,91.489,350.001,345.178,0.0
55936.0,STARLINK-5882,PAYLOAD,2023-04-02 22:00:00,15.73319654,0.0003605,69.9941,135.6593,265.6364,152.9213,-0.0053875,-0.00689736,0.0,0 STARLINK-5882,1 55936U 23037Y   23092.91667824 -.00689736  00000-0 -53875-2 0  9993,2 55936  69.9941 135.6593 0003605 265.6364 152.9213 15.73319654  1307,6727.554,91.526,351.844,346.994,0.0
55936.0,STARLINK-5882,PAYLOAD,2023-04-03 14:00:01,15.72166686,0.0003665,69.9936,133.7764,273.7842,318.3016,-0.0075806,-0.00900836,0.0,0 STARLINK-5882,1 55936U 23037Y   23093.58334491 -.00900836  00000-0 -75806-2 0  9993,2 55936  69.9936 133.7764 0003665 273.7842 318.3016 15.72166686  3166,6730.843,91.593,355.175,350.241,0.0
55936.0,STARLINK-5882,PAYLOAD,2023-04-03 22:00:00,15.7147452,0.0003676,69.9938,132.8365,267.5759,50.149,-0.0071809,-0.00835234,0.0,0 STARLINK-5882,1 55936U 23037Y   23093.91667824 -.00835234  00000-0 -71809-2 0  9997,2 55936  69.9938 132.8365 0003676 267.5759  50.1490 15.71474520  1304,6732.819,91.634,357.159,352.209,0.0
